{
  "type": "FeatureCollection",
  "features": [
    {
      "type": "Feature",
      "properties": {
        "norad_id": 36744,
        "name": "COMS 1",
        "group": "weather",
        "lat": 3.2198887059992205,
        "lon": -149.97131184477433,
        "alt_km": 35784.970745803,
        "timestamp": "2025-12-18T23:35:48.688711+00:00",
        "meta_object_name": "COMS 1",
        "meta_object_id": "2010-032A",
        "meta_epoch": "2025-12-18T10:10:51.675744",
        "meta_mean_motion": 1.00270963,
        "meta_eccentricity": 7.13e-05,
        "meta_inclination": 4.3538,
        "meta_ra_of_asc_node": 77.9342,
        "meta_arg_of_pericenter": 202.6554,
        "meta_mean_anomaly": 87.5811,
        "meta_ephemeris_type": 0,
        "meta_classification_type": "U",
        "meta_norad_cat_id": 36744,
        "meta_element_set_no": 999,
        "meta_rev_at_epoch": 4927,
        "meta_bstar": 0,
        "meta_mean_motion_dot": -3.23e-06,
        "meta_mean_motion_ddot": 0,
        "tle_line1": "1 36744U 10032A   25352.42420921 -.00000323  00000+0  00000+0 0  9998",
        "tle_line2": "2 36744   4.3538  77.9342 0000713 202.6554  87.5811  1.00270963 49276"
      },
      "geometry": {
        "type": "Point",
        "coordinates": [
          -149.97131184477433,
          3.2198887059992205
        ]
      }
    },
    {
      "type": "Feature",
      "properties": {
        "norad_id": 37214,
        "name": "FENGYUN 3B",
        "group": "weather",
        "lat": 42.570222863863144,
        "lon": -138.63360318154227,
        "alt_km": 853.9086830590823,
        "timestamp": "2025-12-18T23:35:48.688723+00:00",
        "meta_object_name": "FENGYUN 3B",
        "meta_object_id": "2010-059A",
        "meta_epoch": "2025-12-18T15:11:10.781088",
        "meta_mean_motion": 14.14792557,
        "meta_eccentricity": 0.00217756,
        "meta_inclination": 98.9905,
        "meta_ra_of_asc_node": 32.6516,
        "meta_arg_of_pericenter": 340.9044,
        "meta_mean_anomaly": 171.8074,
        "meta_ephemeris_type": 0,
        "meta_classification_type": "U",
        "meta_norad_cat_id": 37214,
        "meta_element_set_no": 999,
        "meta_rev_at_epoch": 78189,
        "meta_bstar": 0.00025771213,
        "meta_mean_motion_dot": 4.52e-06,
        "meta_mean_motion_ddot": 0,
        "tle_line1": "1 37214U 10059A   25352.63276367  .00000452  00000+0  25771-3 0  9994",
        "tle_line2": "2 37214  98.9905  32.6516 0021775 340.9044 171.8074 14.14792557781894"
      },
      "geometry": {
        "type": "Point",
        "coordinates": [
          -138.63360318154227,
          42.570222863863144
        ]
      }
    },
    {
      "type": "Feature",
      "properties": {
        "norad_id": 37849,
        "name": "SUOMI NPP",
        "group": "weather",
        "lat": 78.96867759002734,
        "lon": -122.15867782562097,
        "alt_km": 818.0552628855885,
        "timestamp": "2025-12-18T23:35:48.688734+00:00",
        "meta_object_name": "SUOMI NPP",
        "meta_object_id": "2011-061A",
        "meta_epoch": "2025-12-17T23:31:21.474624",
        "meta_mean_motion": 14.19515682,
        "meta_eccentricity": 0.00023932,
        "meta_inclination": 98.7779,
        "meta_ra_of_asc_node": 289.2746,
        "meta_arg_of_pericenter": 111.1248,
        "meta_mean_anomaly": 249.0184,
        "meta_ephemeris_type": 0,
        "meta_classification_type": "U",
        "meta_norad_cat_id": 37849,
        "meta_element_set_no": 999,
        "meta_rev_at_epoch": 73273,
        "meta_bstar": 4.8615036e-05,
        "meta_mean_motion_dot": 5.8e-07,
        "meta_mean_motion_ddot": 0,
        "tle_line1": "1 37849U 11061A   25351.98010966  .00000058  00000+0  48615-4 0  9995",
        "tle_line2": "2 37849  98.7779 289.2746 0002393 111.1248 249.0184 14.19515682732735"
      },
      "geometry": {
        "type": "Point",
        "coordinates": [
          -122.15867782562097,
          78.96867759002734
        ]
      }
    },
    {
      "type": "Feature",
      "properties": {
        "norad_id": 38552,
        "name": "METEOSAT-10 (MSG-3)",
        "group": "weather",
        "lat": 1.4997351418475915,
        "lon": 82.00488321385355,
        "alt_km": 35785.610831082726,
        "timestamp": "2025-12-18T23:35:48.688746+00:00",
        "meta_object_name": "METEOSAT-10 (MSG-3)",
        "meta_object_id": "2012-035B",
        "meta_epoch": "2025-12-18T08:09:39.923424",
        "meta_mean_motion": 1.00276373,
        "meta_eccentricity": 6.961e-05,
        "meta_inclination": 4.2412,
        "meta_ra_of_asc_node": 61.7092,
        "meta_arg_of_pericenter": 269.8474,
        "meta_mean_anomaly": 238.319,
        "meta_ephemeris_type": 0,
        "meta_classification_type": "U",
        "meta_norad_cat_id": 38552,
        "meta_element_set_no": 999,
        "meta_rev_at_epoch": 4904,
        "meta_bstar": 0,
        "meta_mean_motion_dot": 1.7e-07,
        "meta_mean_motion_ddot": 0,
        "tle_line1": "1 38552U 12035B   25352.34004541  .00000017  00000+0  00000+0 0  9998",
        "tle_line2": "2 38552   4.2412  61.7092 0000696 269.8474 238.3190  1.00276373 49046"
      },
      "geometry": {
        "type": "Point",
        "coordinates": [
          82.00488321385355,
          1.4997351418475915
        ]
      }
    },
    {
      "type": "Feature",
      "properties": {
        "norad_id": 38771,
        "name": "METOP-B",
        "group": "weather",
        "lat": -21.835710657617746,
        "lon": 46.34487113690402,
        "alt_km": 827.8565588776073,
        "timestamp": "2025-12-18T23:35:48.688757+00:00",
        "meta_object_name": "METOP-B",
        "meta_object_id": "2012-049A",
        "meta_epoch": "2025-12-18T15:15:12.822048",
        "meta_mean_motion": 14.21410591,
        "meta_eccentricity": 0.00031148,
        "meta_inclination": 98.6792,
        "meta_ra_of_asc_node": 42.4942,
        "meta_arg_of_pericenter": 131.7383,
        "meta_mean_anomaly": 228.4061,
        "meta_ephemeris_type": 0,
        "meta_classification_type": "U",
        "meta_norad_cat_id": 38771,
        "meta_element_set_no": 999,
        "meta_rev_at_epoch": 68761,
        "meta_bstar": 7.53574e-05,
        "meta_mean_motion_dot": 1.21e-06,
        "meta_mean_motion_ddot": 0,
        "tle_line1": "1 38771U 12049A   25352.63556507  .00000121  00000+0  75357-4 0  9990",
        "tle_line2": "2 38771  98.6792  42.4942 0003114 131.7383 228.4061 14.21410591687618"
      },
      "geometry": {
        "type": "Point",
        "coordinates": [
          46.34487113690402,
          -21.835710657617746
        ]
      }
    },
    {
      "type": "Feature",
      "properties": {
        "norad_id": 39216,
        "name": "INSAT-3D",
        "group": "weather",
        "lat": 1.1590324282555458,
        "lon": -148.75627084543086,
        "alt_km": 35783.33237345712,
        "timestamp": "2025-12-18T23:35:48.688770+00:00",
        "meta_object_name": "INSAT-3D",
        "meta_object_id": "2013-038B",
        "meta_epoch": "2025-12-17T17:21:59.330304",
        "meta_mean_motion": 1.00267779,
        "meta_eccentricity": 0.00012009,
        "meta_inclination": 1.4572,
        "meta_ra_of_asc_node": 84.9421,
        "meta_arg_of_pericenter": 166.0293,
        "meta_mean_anomaly": 225.6028,
        "meta_ephemeris_type": 0,
        "meta_classification_type": "U",
        "meta_norad_cat_id": 39216,
        "meta_element_set_no": 999,
        "meta_rev_at_epoch": 4526,
        "meta_bstar": 0,
        "meta_mean_motion_dot": -3.16e-06,
        "meta_mean_motion_ddot": 0,
        "tle_line1": "1 39216U 13038B   25351.72360336 -.00000316  00000+0  00000+0 0  9991",
        "tle_line2": "2 39216   1.4572  84.9421 0001200 166.0293 225.6028  1.00267779 45261"
      },
      "geometry": {
        "type": "Point",
        "coordinates": [
          -148.75627084543086,
          1.1590324282555458
        ]
      }
    },
    {
      "type": "Feature",
      "properties": {
        "norad_id": 39260,
        "name": "FENGYUN 3C",
        "group": "weather",
        "lat": 79.29583770894345,
        "lon": -157.55532656547356,
        "alt_km": 830.9458992350019,
        "timestamp": "2025-12-18T23:35:48.688781+00:00",
        "meta_object_name": "FENGYUN 3C",
        "meta_object_id": "2013-052A",
        "meta_epoch": "2025-12-18T14:39:38.138112",
        "meta_mean_motion": 14.15698175,
        "meta_eccentricity": 0.00146108,
        "meta_inclination": 98.4768,
        "meta_ra_of_asc_node": 330.0037,
        "meta_arg_of_pericenter": 178.8851,
        "meta_mean_anomaly": 181.2359,
        "meta_ephemeris_type": 0,
        "meta_classification_type": "U",
        "meta_norad_cat_id": 39260,
        "meta_element_set_no": 999,
        "meta_rev_at_epoch": 63301,
        "meta_bstar": 6.6214225e-05,
        "meta_mean_motion_dot": 8.9e-07,
        "meta_mean_motion_ddot": 0,
        "tle_line1": "1 39260U 13052A   25352.61085808  .00000089  00000+0  66214-4 0  9993",
        "tle_line2": "2 39260  98.4768 330.0037 0014610 178.8851 181.2359 14.15698175633019"
      },
      "geometry": {
        "type": "Point",
        "coordinates": [
          -157.55532656547356,
          79.29583770894345
        ]
      }
    }
  ]
}